{
  "type": "FeatureCollection",
  "features": [
    {
      "type": "Feature",
      "properties": {
        "name": "Canggu land"
      },
      "geometry": {
        "type": "Polygon",
        "coordinates": [
          [
            [
              115.07967822704317,
              -8.62135865182621
            ],
            [
              115.1050686,
              -8.643485800000004
            ],
            [
              115.1051277,
              -8.6435373
            ],
            [
              115.1051545,
              -8.643586400000004
            ],
            [
              115.1051612,
              -8.643668600000005
            ],
            [
              115.1052363,
              -8.643805100000014
            ],
            [
              115.1053973,
              -8.643916500000007
            ],
            [
              115.1061738,
              -8.644229399999995
            ],
            [
              115.1066284,
              -8.644385899999996
            ],
            [
              115.1074223,
              -8.6446736
            ],
            [
              115.1078367,
              -8.6448208
            ],
            [
              115.1085287,
              -8.645011700000005
            ],
            [
              115.1087594,
              -8.645073999999994
            ],
            [
              115.1088694,
              -8.645125700000008
            ],
            [
              115.1090236,
              -8.645141599999999
            ],
            [
              115.1091432,
              -8.645125200000008
            ],
            [
              115.1113704,
              -8.6456126
            ],
            [
              115.1131257,
              -8.646693899999995
            ],
            [
              115.1139157,
              -8.647021100000002
            ],
            [
              115.114695,
              -8.647400299999996
            ],
            [
              115.1159,
              -8.648057200000004
            ],
            [
              115.1159281,
              -8.648074399999992
            ],
            [
              115.1159669,
              -8.648098199999998
            ],
            [
              115.116134,
              -8.648200699999999
            ],
            [
              115.1166881,
              -8.648516099999998
            ],
            [
              115.1172852,
              -8.64893699999999
            ],
            [
              115.1180263,
              -8.649459399999998
            ],
            [
              115.1180771,
              -8.649501199999998
            ],
            [
              115.1181203,
              -8.649536800000002
            ],
            [
              115.1189219,
              -8.650086699999996
            ],
            [
              115.1191839,
              -8.650273299999993
            ],
            [
              115.1193111,
              -8.6503888
            ],
            [
              115.1193352,
              -8.650398500000003
            ],
            [
              115.1193719,
              -8.650413099999996
            ],
            [
              115.1197457,
              -8.650759299999995
            ],
            [
              115.1203747,
              -8.6511372
            ],
            [
              115.1208642,
              -8.651329400000005
            ],
            [
              115.1209876,
              -8.651454000000005
            ],
            [
              115.1210996,
              -8.651569399999993
            ],
            [
              115.1210982,
              -8.651636300000002
            ],
            [
              115.121062,
              -8.651685399999993
            ],
            [
              115.121001,
              -8.651700599999996
            ],
            [
              115.120934,
              -8.651708599999994
            ],
            [
              115.1208642,
              -8.6517431
            ],
            [
              115.1208468,
              -8.651789500000005
            ],
            [
              115.1208615,
              -8.651833200000002
            ],
            [
              115.1209205,
              -8.651922700000005
            ],
            [
              115.1209782,
              -8.652010899999995
            ],
            [
              115.1210141,
              -8.652030100000001
            ],
            [
              115.1210516,
              -8.652025500000006
            ],
            [
              115.1210888,
              -8.652002899999994
            ],
            [
              115.1211633,
              -8.651952500000009
            ],
            [
              115.1212142,
              -8.651941900000006
            ],
            [
              115.1212598,
              -8.651947200000004
            ],
            [
              115.1212867,
              -8.651968400000001
            ],
            [
              115.121284,
              -8.652018799999999
            ],
            [
              115.1213068,
              -8.652063899999991
            ],
            [
              115.1213403,
              -8.652093100000009
            ],
            [
              115.1214006,
              -8.652111600000007
            ],
            [
              115.1214489,
              -8.652103700000007
            ],
            [
              115.1214919,
              -8.652078500000005
            ],
            [
              115.1216501,
              -8.652241599999995
            ],
            [
              115.1219518,
              -8.652429800000002
            ],
            [
              115.1222911,
              -8.652725499999997
            ],
            [
              115.1224668,
              -8.652830200000002
            ],
            [
              115.1225969,
              -8.6528793
            ],
            [
              115.1227297,
              -8.652882000000005
            ],
            [
              115.1228012,
              -8.652838400000004
            ],
            [
              115.1230636,
              -8.6527746
            ],
            [
              115.1232118,
              -8.652751400000005
            ],
            [
              115.1233435,
              -8.652717200000007
            ],
            [
              115.1234012,
              -8.65286920000001
            ],
            [
              115.1232403,
              -8.652953300000004
            ],
            [
              115.1231146,
              -8.652879300000007
            ],
            [
              115.1229457,
              -8.65291640000001
            ],
            [
              115.1229148,
              -8.652978000000003
            ],
            [
              115.122923,
              -8.6530898
            ],
            [
              115.122939,
              -8.653183900000005
            ],
            [
              115.122985,
              -8.653325400000014
            ],
            [
              115.1230572,
              -8.653513600000005
            ],
            [
              115.1232411,
              -8.653714000000003
            ],
            [
              115.123504,
              -8.653865700000003
            ],
            [
              115.1238453,
              -8.65408500000001
            ],
            [
              115.1242744,
              -8.654336399999996
            ],
            [
              115.124563,
              -8.654499499999998
            ],
            [
              115.124732,
              -8.654679799999995
            ],
            [
              115.1248889,
              -8.654856100000002
            ],
            [
              115.124964,
              -8.654979400000002
            ],
            [
              115.1250878,
              -8.655258500000008
            ],
            [
              115.1252308,
              -8.6555084
            ],
            [
              115.1253167,
              -8.655597300000007
            ],
            [
              115.1253891,
              -8.655639699999998
            ],
            [
              115.1255339,
              -8.655707300000007
            ],
            [
              115.1256673,
              -8.655771000000001
            ],
            [
              115.1257794,
              -8.655835900000001
            ],
            [
              115.1259242,
              -8.655943299999997
            ],
            [
              115.126171,
              -8.656140899999999
            ],
            [
              115.1263037,
              -8.6562376
            ],
            [
              115.1264673,
              -8.656390099999996
            ],
            [
              115.1265787,
              -8.656518699999994
            ],
            [
              115.1267047,
              -8.6566844
            ],
            [
              115.1267671,
              -8.656756699999994
            ],
            [
              115.1268066,
              -8.656781199999998
            ],
            [
              115.1271238,
              -8.656977099999999
            ],
            [
              115.1274026,
              -8.6571609
            ],
            [
              115.1278107,
              -8.657557199999998
            ],
            [
              115.1283573,
              -8.658079599999997
            ],
            [
              115.1285904,
              -8.65828010000001
            ],
            [
              115.128936,
              -8.658468400000007
            ],
            [
              115.1291104,
              -8.658584199999991
            ],
            [
              115.1293509,
              -8.658830000000005
            ],
            [
              115.1297022,
              -8.659355799999995
            ],
            [
              115.1298001,
              -8.659486999999999
            ],
            [
              115.1298746,
              -8.659549600000004
            ],
            [
              115.1300691,
              -8.65966289999999
            ],
            [
              115.1303849,
              -8.659856900000012
            ],
            [
              115.1307698,
              -8.660169700000006
            ],
            [
              115.1316212,
              -8.66093790000001
            ],
            [
              115.1321692,
              -8.661390400000004
            ],
            [
              115.1322908,
              -8.661470599999992
            ],
            [
              115.1325406,
              -8.661615699999997
            ],
            [
              115.1330243,
              -8.661845800000009
            ],
            [
              115.1334128,
              -8.66207189999999
            ],
            [
              115.1334921,
              -8.662132700000006
            ],
            [
              115.1336257,
              -8.662372599999994
            ],
            [
              115.1337337,
              -8.662552100000001
            ],
            [
              115.1339341,
              -8.662800900000002
            ],
            [
              115.1342712,
              -8.663154299999993
            ],
            [
              115.1345956,
              -8.663364800000014
            ],
            [
              115.1348097,
              -8.663483900000003
            ],
            [
              115.1351545,
              -8.663616899999996
            ],
            [
              115.1352634,
              -8.663678700000002
            ],
            [
              115.1358703,
              -8.664295600000008
            ],
            [
              115.1363379,
              -8.664768299999999
            ],
            [
              115.1371762,
              -8.665245200000005
            ],
            [
              115.1377435,
              -8.665755800000007
            ],
            [
              115.1384536,
              -8.666800499999997
            ],
            [
              115.1391322,
              -8.667379799999997
            ],
            [
              115.139141,
              -8.667390199999996
            ],
            [
              115.1396094,
              -8.667942399999992
            ],
            [
              115.1402898,
              -8.668586200000007
            ],
            [
              115.140647,
              -8.668924199999996
            ],
            [
              115.1411591,
              -8.669639800000002
            ],
            [
              115.1415242,
              -8.669972699999995
            ],
            [
              115.1417395,
              -8.670176099999992
            ],
            [
              115.1417533,
              -8.670186399999999
            ],
            [
              115.1421316,
              -8.670468799999997
            ],
            [
              115.1425447,
              -8.670754400000003
            ],
            [
              115.1429412,
              -8.671115999999996
            ],
            [
              115.1433774,
              -8.671392700000007
            ],
            [
              115.1437971,
              -8.671900600000003
            ],
            [
              115.1441686,
              -8.672571000000007
            ],
            [
              115.1448862,
              -8.673533800000007
            ],
            [
              115.1453262,
              -8.674039199999992
            ],
            [
              115.1455203,
              -8.6743397
            ],
            [
              115.1458533,
              -8.674591400000006
            ],
            [
              115.1468401,
              -8.676166199999997
            ],
            [
              115.1470262,
              -8.676401300000007
            ],
            [
              115.1474782,
              -8.677135600000002
            ],
            [
              115.1477321,
              -8.677396399999997
            ],
            [
              115.1488615,
              -8.678677700000012
            ],
            [
              115.1491803,
              -8.679048999999994
            ],
            [
              115.1504489,
              -8.682040599999993
            ],
            [
              115.1504631,
              -8.682057700000005
            ],
            [
              115.1505031,
              -8.682117800000006
            ],
            [
              115.1507087,
              -8.68233190000001
            ],
            [
              115.150933,
              -8.682762899999998
            ],
            [
              115.151168,
              -8.6829694
            ],
            [
              115.1516541,
              -8.683414500000012
            ],
            [
              115.1520429,
              -8.683843600000003
            ],
            [
              115.1523017,
              -8.684304400000007
            ],
            [
              115.1535441,
              -8.686430599999994
            ],
            [
              115.1548149,
              -8.688369100000003
            ],
            [
              115.155202,
              -8.688718599999994
            ],
            [
              115.1555051,
              -8.689083400000003
            ],
            [
              115.1557497,
              -8.689329199999996
            ],
            [
              115.1569868,
              -8.691041400000007
            ],
            [
              115.1573526,
              -8.691943599999998
            ],
            [
              115.1576696,
              -8.69237290000001
            ],
            [
              115.1580457,
              -8.692932600000004
            ],
            [
              115.158161,
              -8.69300900000001
            ],
            [
              115.1584186,
              -8.693267899999995
            ],
            [
              115.1595505,
              -8.694495400000001
            ],
            [
              115.1599117,
              -8.695553299999995
            ],
            [
              115.1603467,
              -8.696383600000006
            ],
            [
              115.1613041,
              -8.697790899999992
            ],
            [
              115.17373896345005,
              -8.71606816642134
            ],
            [
              115.19346979585178,
              -8.716162509742249
            ],
            [
              115.19415396262679,
              -8.572512972361794
            ],
            [
              115.07992695234871,
              -8.571961746603726
            ],
            [
              115.07967822704317,
              -8.62135865182621
            ]
          ]
        ]
      }
    }
  ]
}
