{
  "type": "Feature",
  "properties": {
    "name": "Canggu chunks x9-10 z21-22"
  },
  "geometry": {
    "type": "Polygon",
    "coordinates": [
      [
        [
          115.15065543017123,
          -8.639588984103074
        ],
        [
          115.15292654187901,
          -8.63959993978785
        ],
        [
          115.15519765657415,
          -8.63961088202841
        ],
        [
          115.15746877425298,
          -8.63962181082466
        ],
        [
          115.15973989491182,
          -8.639632726176517
        ],
        [
          115.16201101854702,
          -8.6396436280839
        ],
        [
          115.16428214515491,
          -8.639654516546722
        ],
        [
          115.16655327473183,
          -8.639665391564895
        ],
        [
          115.16882440727407,
          -8.639676253138337
        ],
        [
          115.16881349820679,
          -8.64193640667162
        ],
        [
          115.16880258617773,
          -8.644196559925208
        ],
        [
          115.16879167118681,
          -8.646456712899015
        ],
        [
          115.16878075323396,
          -8.648716865592982
        ],
        [
          115.16876983231909,
          -8.650977018007033
        ],
        [
          115.16875890844209,
          -8.6532371701411
        ],
        [
          115.1687479816029,
          -8.65549732199511
        ],
        [
          115.16873705180143,
          -8.657757473568987
        ],
        [
          115.1664658110636,
          -8.657746588928612
        ],
        [
          115.16419457329182,
          -8.657735690814958
        ],
        [
          115.16192333848976,
          -8.657724779228102
        ],
        [
          115.15965210666107,
          -8.65771385416814
        ],
        [
          115.15738087780943,
          -8.657702915635143
        ],
        [
          115.15510965193852,
          -8.65769196362921
        ],
        [
          115.15283842905197,
          -8.657680998150417
        ],
        [
          115.15056720915348,
          -8.657670019198854
        ],
        [
          115.1505782472508,
          -8.655409890792757
        ],
        [
          115.1505892823565,
          -8.653149762106267
        ],
        [
          115.15060031447065,
          -8.650889633139458
        ],
        [
          115.15061134359334,
          -8.648629503892396
        ],
        [
          115.15062236972466,
          -8.646369374365156
        ],
        [
          115.15063339286468,
          -8.644109244557809
        ],
        [
          115.15064441301351,
          -8.641849114470423
        ],
        [
          115.15065543017123,
          -8.639588984103074
        ]
      ]
    ]
  }
}
